#dP2024  4 17 12  0  0.00000000      96 __u+U IGS20 EXT  IAC
## 2310 302400.00000000   900.00000000 60417 0.5000000000000
+  115   C07C08C09C10C11C12C13C14C16C19C20C21C22C23C24C25C26
+        C27C28C29C30C32C33C34C35C36C37C38C39C40C41C42C43C44
+        C45C46E02E03E04E05E07E08E09E10E11E12E13E14E15E19E21
+        E24E25E26E27E30E31E33E34E36G02G03G04G05G06G07G08G09
+        G10G11G12G13G14G15G16G17G18G19G20G21G22G23G24G25G26
+        G27G28G29G30G31G32J02J03R01R02R03R04R05R08R09R11R12
+        R13R14R15R16R17R18R19R20R21R22R24R25R26  0  0  0  0
++        10 10  9  7  9  9  9  9  8  8  9  9  8  9  9 10  8
++        11  8  8  9  9  9 10  7  8  9  9 10  8  9  9  8  8
++         7  8  8  6  8  6  8  7  7  8  7  8 10  7 10  8  8
++         7  8  9  8  7  7  9  9  8  6  7  8  7  7  7  7  7
++         6  7  8  6  7  6  6  7  7  7  8  8  7  7  7  7  7
++         7  8  7  7  7  8  9  9 10  7  8  8  6  9  7  7  7
++         8  8  8  9  8  7 10 10  7  6  9  8  7  0  0  0  0
%c M  cc GPS ccc cccc cccc cccc cccc ccccc ccccc ccccc ccccc
%c cc cc ccc ccc cccc cccc cccc cccc ccccc ccccc ccccc ccccc
%f  0.0000000  0.000000000  0.00000000000  0.000000000000000
%f  0.0000000  0.000000000  0.00000000000  0.000000000000000
%i    0    0    0    0      0      0      0      0         0
%i    0    0    0    0      0      0      0      0         0
/* IAC                                ULTRA-RAPID PREDICTION
/* S/V CLOCKS ARE ALIGNED TO GNSS TIME                      
/* G:C1WC2W R:C1PC2P E:C1XC5X C:C2IC6I J:C1CC2S             
/* PCV:IGS20_2290 OL/AL:FES2004  NONE     YN ORB:CoN CLK:CoN
*  2024 04 17 18 15  0.00000000
PC07 -17102.048945  29030.821003 -25391.633424   -811.576215
PC08 -13182.485909  39927.825413   -861.082583    -33.574670
PC09   5173.624271  34923.276125  23981.612129   -775.956269
PC10  -8482.455888  29356.918113 -28912.593270     -3.236959
PC11 -25081.810323  -8330.339404  -8905.881119    517.094106
PC12 -18718.170207 -18417.056196   9472.511604   -233.017396
PC13  -7511.421758  40835.118746   6617.801718    431.599913
PC14 -23733.969757   2767.327079 -14453.728911    667.317989
PC16  -4107.934554  28669.640442  31056.751195   -464.538570
PC19  25230.786228 -10108.094057   6272.857083   -914.219924
PC20  19489.625408   3793.936511  19606.624510   -370.395186
PC21  -1341.671327 -16711.351123 -22283.666374   -963.248103
PC22  16799.255795 -19038.565163 -11537.526362    -35.403061
PC23  -9023.263175  23003.657422  12969.413532   -775.869165
PC24 -13647.100889 -15737.160415  18565.994070    938.634803
PC25 -15797.394665   5818.145853  22242.697972    377.315190
PC26  -4131.427605 -27278.606541   4287.581255   -278.621977
PC27  11214.030709  19623.437048 -16399.151604    300.391295
PC28  -6207.681788  14857.240747 -22790.990667    229.742880
PC29  23121.569174   -401.431790  15613.904511    269.510146
PC30  24218.164992  13803.855883  -1563.491314    -57.974270
PC32   1350.491880  16788.394699  22273.483037   -603.978179
PC33 -25190.196469  10255.511909  -6304.365173   -971.784279
PC34 -24752.120878 -12860.517485    -29.123717    414.375065
PC35   5984.574774 -15002.601512  22737.686441    384.663198
PC36  15949.864771  -5254.689037 -22268.657851     54.444847
PC37   3350.530580  27395.101223  -4035.669008   -959.908957
PC38 -16162.183465  37988.645246  -8210.405677    149.627687
PC39  -7660.724934  25130.893740  33101.416803     -8.009213
PC40 -23658.033589  22698.964634 -26684.463977    -65.925538
PC41 -17373.206900  19008.132071  10839.884936   -927.245354
PC42 -18393.259126  -5045.794624 -20337.632454   -443.040836
PC43 -23581.919458   -275.609377 -14915.100340     68.366231
PC44 -11746.992388 -19239.795695  16410.009107    446.699062
PC45   9032.337803 -22977.582986 -13030.914634    -80.700106
PC46  13803.469073  14938.134040 -19096.533691   -140.792163
PE02 -20571.031512   5444.193812  20561.341298    120.253244
PE03 -29572.103857   -556.069127   1376.750597   -107.875176
PE04  20021.383891 -11794.897726 -18319.037826   -375.888299
PE05 -21598.696514 -12340.164390 -16038.134809   4739.466836
PE07    480.023984  16996.688827  24240.201405   -115.116122
PE08 -20708.310105  11310.642111  17888.352123   -256.559603
PE09   -399.680282 -16843.268483 -24329.720885   -410.710247
PE10   2253.132219 -22513.963967  19074.828458   -617.898722
PE11  -5856.722213 -26933.117938  10752.044085   3023.429349
PE12   9340.539628 -15255.942572  23572.381172   -998.518361
PE13   5451.724777  26799.183683 -11343.721025    -21.071683
PE14  11276.023058  16764.812281 -18667.889315      9.482489
PE15  -9621.142907  14757.065439 -23787.080949    -97.662921
PE19  29516.105211   2116.358878    657.689827   -225.592201
PE21  10706.208715  13785.652561 -23911.358750   -589.770197
PE24   6165.518995 -25833.268046  13069.522174   -712.947604
PE25 -10397.377294 -14152.104227  23827.981618      3.450041
PE26  17349.195344  22599.511542   8044.232390    428.651864
PE27  -5814.423304  25753.707984 -13379.111350   -326.861296
PE30 -18843.845233  22254.069404   5037.655121   -208.776205
PE31  18713.434466 -22402.663769  -4914.094036    -21.097480
PE33  18938.337253   6323.521719  21853.634636     10.543887
PE34 -18845.554188  -5721.089893 -22103.131860   -106.222826
PE36 -17074.278536 -22973.089346  -7508.763875   -214.723019
PG02  19414.116904   8773.549927  16517.762090   -451.709882
PG03  17623.164499  -4288.376136  19209.451570    315.987023
PG04  26588.802404   1556.148723    -14.760357    341.013516
PG05 -11288.125795 -10461.320730 -21811.949245   -169.489968
PG06  -3368.080271 -23381.665639  12088.168772    317.237505
PG07  11427.265511 -10430.500618 -21036.465470   -109.449257
PG08  24108.890148   6642.142546  -9664.898052    127.740815
PG09  22181.937984  -8472.559302 -12034.788822    163.900883
PG10  -9649.443720  23807.118608   6255.710849    -10.065321
PG11 -11774.456635 -23836.386322   -275.235088   -639.062857
PG12 -17750.817325   1729.329425  19378.127438   -497.448181
PG13 -17377.520447 -13475.295437 -15263.224890    643.512385
PG14  12842.623777 -23008.818743   2318.825218    378.731706
PG15 -24480.028533  -4381.236690 -10093.767180    149.467557
PG16   7215.179409  14894.891138 -21014.040876   -314.322367
PG17  11104.561924 -13258.961620  20620.667210    711.014821
PG18 -10533.382299  11376.838259 -21526.044727   -596.133767
PG19    257.071420 -15031.752027  21725.882415    469.569701
PG20  -4499.826966 -20452.858536 -16363.865672    379.827359
PG21  19790.352015  13965.216805  12443.165065    126.785894
PG22   8013.199843 -23319.387105  10667.974146     -0.892817
PG23 -16180.113885  20011.841918  -6126.468537    203.346771
PG24 -19776.240293 -11031.081076  13787.907178   -460.446376
PG25 -18652.045105  12241.687605  13866.957155    493.966596
PG26   -885.093148  23069.192969 -12953.875623    165.371314
PG27  14969.313537  12937.542826 -18207.801925    -19.206109
PG28   1964.768130  22509.193075  13949.757554   -207.218764
PG29 -24104.496002   4666.627600 -10322.859585   -601.557182
PG30   3310.976412 -19987.564088 -16894.356265   -403.807419
PG31   9138.141101  24295.174342   4303.789815   -228.005136
PG32  -7111.687581  14664.139176  21146.016706   -618.200166
PJ02 -34218.879244  24613.640886   6129.823840     -4.179005
PJ03 -21802.371961  20226.276631 -25283.171863     -0.029125
PR01  -2485.229722  12380.338581  22173.602465     82.774740
PR02  14729.680844   4770.668848  20342.194659    -22.759699
PR03  23993.348851  -5494.690231   6850.961448     98.445251
PR04  20021.039357 -12181.184128 -10048.270587    232.454913
PR05   5345.360231 -12515.691957 -21560.751688    130.109734
PR08 -19666.717246  12496.352298  10411.791334    -75.122830
PR09  -7449.613282 -15238.611834  19036.125552    181.552273
PR11  -9866.835018  18498.918488  14552.023563     27.653219
PR12  -2031.184849  25067.116585  -4204.261447     39.107373
PR13   5913.881473  17499.769589 -17604.840685    -46.450324
PR14  11520.468349  -2797.130787 -22572.969939     26.389946
PR15   9636.443084 -19554.884246 -13220.857259     80.421589
PR16   2038.030471 -25091.488595   4006.065196     24.871209
PR17  18996.436205   6560.001146  15690.257336     78.865882
PR18   8776.546382  -6238.808806  23137.241541    137.652454
PR19  -4041.229310 -15616.585315  19754.605701   -273.414969
PR20 -18189.741742 -17756.326312   1815.992319   -111.417472
PR21 -18940.378555  -6806.208311 -15689.196555    -93.554625
PR22  -8237.220777   7221.463599 -23012.391717    115.472734
PR24  19136.919220  16814.093702  -1202.553450    -52.231444
PR25 -18806.760097  -7027.789241 -15743.015977    -29.837311
PR26 -20338.510211  12332.584901   9276.926471    -24.428311
EOF
